[{"OBJECT_NAME":"STARLINK-5197","OBJECT_ID":"2022-136AY","EPOCH":"2025-08-15T12:51:51.899040","MEAN_MOTION":15.08834663,"ECCENTRICITY":0.0001359,"INCLINATION":53.217,"RA_OF_ASC_NODE":154.5113,"ARG_OF_PERICENTER":96.1192,"MEAN_ANOMALY":263.9955,"EPHEMERIS_TYPE":0,"CLASSIFICATION_TYPE":"U","NORAD_CAT_ID":54097,"ELEMENT_SET_NO":999,"REV_AT_EPOCH":15621,"BSTAR":-0.00014905,"MEAN_MOTION_DOT":-2.659e-5,"MEAN_MOTION_DDOT":0},{"OBJECT_NAME":"STARLINK-5217","OBJECT_ID":"2022-136AZ","EPOCH":"2025-08-15T13:56:14.959680","MEAN_MOTION":15.08831342,"ECCENTRICITY":0.0001434,"INCLINATION":53.2173,"RA_OF_ASC_NODE":179.7167,"ARG_OF_PERICENTER":87.5645,"MEAN_ANOMALY":272.5511,"EPHEMERIS_TYPE":0,"CLASSIFICATION_TYPE":"U","NORAD_CAT_ID":54098,"ELEMENT_SET_NO":999,"REV_AT_EPOCH":15586,"BSTAR":-4.1036e-5,"MEAN_MOTION_DOT":-9.41e-6,"MEAN_MOTION_DDOT":0},{"OBJECT_NAME":"STARLINK-5198","OBJECT_ID":"2022-136BA","EPOCH":"2025-08-15T13:44:07.672992","MEAN_MOTION":15.08836639,"ECCENTRICITY":0.0001365,"INCLINATION":53.2169,"RA_OF_ASC_NODE":178.9723,"ARG_OF_PERICENTER":83.4618,"MEAN_ANOMALY":276.653,"EPHEMERIS_TYPE":0,"CLASSIFICATION_TYPE":"U","NORAD_CAT_ID":54099,"ELEMENT_SET_NO":999,"REV_AT_EPOCH":15587,"BSTAR":3.6607e-5,"MEAN_MOTION_DOT":2.95e-6,"MEAN_MOTION_DDOT":0},{"OBJECT_NAME":"STARLINK-5185","OBJECT_ID":"2022-136BB","EPOCH":"2025-08-15T14:05:21.077664","MEAN_MOTION":15.08835556,"ECCENTRICITY":0.0001653,"INCLINATION":53.2165,"RA_OF_ASC_NODE":179.0636,"ARG_OF_PERICENTER":88.4688,"MEAN_ANOMALY":271.6493,"EPHEMERIS_TYPE":0,"CLASSIFICATION_TYPE":"U","NORAD_CAT_ID":54100,"ELEMENT_SET_NO":999,"REV_AT_EPOCH":15587,"BSTAR":7.03e-5,"MEAN_MOTION_DOT":8.31e-6,"MEAN_MOTION_DDOT":0},{"OBJECT_NAME":"STARLINK-5204","OBJECT_ID":"2022-136BC","EPOCH":"2025-08-15T02:58:23.450592","MEAN_MOTION":15.08836395,"ECCENTRICITY":0.0001035,"INCLINATION":53.2172,"RA_OF_ASC_NODE":166.1944,"ARG_OF_PERICENTER":91.5878,"MEAN_ANOMALY":268.5232,"EPHEMERIS_TYPE":0,"CLASSIFICATION_TYPE":"U","NORAD_CAT_ID":54101,"ELEMENT_SET_NO":999,"REV_AT_EPOCH":15601,"BSTAR":0.00015491,"MEAN_MOTION_DOT":2.178e-5,"MEAN_MOTION_DDOT":0},{"OBJECT_NAME":"STARLINK-5179","OBJECT_ID":"2022-136BD","EPOCH":"2025-08-15T06:50:52.189728","MEAN_MOTION":15.08836343,"ECCENTRICITY":0.0001452,"INCLINATION":53.217,"RA_OF_ASC_NODE":180.7248,"ARG_OF_PERICENTER":83.8219,"MEAN_ANOMALY":276.2939,"EPHEMERIS_TYPE":0,"CLASSIFICATION_TYPE":"U","NORAD_CAT_ID":54102,"ELEMENT_SET_NO":999,"REV_AT_EPOCH":15582,"BSTAR":1.0124e-6,"MEAN_MOTION_DOT":-2.72e-6,"MEAN_MOTION_DDOT":0},{"OBJECT_NAME":"STARLINK-5200","OBJECT_ID":"2022-136BE","EPOCH":"2025-08-15T12:32:38.494464","MEAN_MOTION":15.08818273,"ECCENTRICITY":9.06e-5,"INCLINATION":53.2165,"RA_OF_ASC_NODE":159.4265,"ARG_OF_PERICENTER":76.9099,"MEAN_ANOMALY":283.1994,"EPHEMERIS_TYPE":0,"CLASSIFICATION_TYPE":"U","NORAD_CAT_ID":54103,"ELEMENT_SET_NO":999,"REV_AT_EPOCH":15614,"BSTAR":0.00012224,"MEAN_MOTION_DOT":1.657e-5,"MEAN_MOTION_DDOT":0},{"OBJECT_NAME":"STARLINK-5203","OBJECT_ID":"2022-136BF","EPOCH":"2025-08-15T04:03:12.088224","MEAN_MOTION":15.0884129,"ECCENTRICITY":0.0001402,"INCLINATION":53.2171,"RA_OF_ASC_NODE":145.7833,"ARG_OF_PERICENTER":85.5882,"MEAN_ANOMALY":274.527,"EPHEMERIS_TYPE":0,"CLASSIFICATION_TYPE":"U","NORAD_CAT_ID":54104,"ELEMENT_SET_NO":999,"REV_AT_EPOCH":15630,"BSTAR":2.6297e-5,"MEAN_MOTION_DOT":1.31e-6,"MEAN_MOTION_DDOT":0},{"OBJECT_NAME":"STARLINK-5290","OBJECT_ID":"2022-141A","EPOCH":"2025-08-15T06:09:50.569920","MEAN_MOTION":15.08836578,"ECCENTRICITY":0.0001338,"INCLINATION":53.2157,"RA_OF_ASC_NODE":220.7827,"ARG_OF_PERICENTER":81.8996,"MEAN_ANOMALY":278.2147,"EPHEMERIS_TYPE":0,"CLASSIFICATION_TYPE":"U","NORAD_CAT_ID":54157,"ELEMENT_SET_NO":999,"REV_AT_EPOCH":15455,"BSTAR":-1.3023e-5,"MEAN_MOTION_DOT":-4.95e-6,"MEAN_MOTION_DDOT":0},{"OBJECT_NAME":"STARLINK-5297","OBJECT_ID":"2022-141B","EPOCH":"2025-08-15T06:34:59.260800","MEAN_MOTION":15.08838413,"ECCENTRICITY":0.0001248,"INCLINATION":53.2161,"RA_OF_ASC_NODE":220.8917,"ARG_OF_PERICENTER":82.3051,"MEAN_ANOMALY":277.8083,"EPHEMERIS_TYPE":0,"CLASSIFICATION_TYPE":"U","NORAD_CAT_ID":54158,"ELEMENT_SET_NO":999,"REV_AT_EPOCH":15455,"BSTAR":-1.6221e-6,"MEAN_MOTION_DOT":-3.14e-6,"MEAN_MOTION_DDOT":0},{"OBJECT_NAME":"STARLINK-5294","OBJECT_ID":"2022-141C","EPOCH":"2025-08-15T06:29:41.544672","MEAN_MOTION":15.08832879,"ECCENTRICITY":0.0001042,"INCLINATION":53.216,"RA_OF_ASC_NODE":220.8754,"ARG_OF_PERICENTER":84.9598,"MEAN_ANOMALY":275.1513,"EPHEMERIS_TYPE":0,"CLASSIFICATION_TYPE":"U","NORAD_CAT_ID":54159,"ELEMENT_SET_NO":999,"REV_AT_EPOCH":15455,"BSTAR":-2.64e-5,"MEAN_MOTION_DOT":-7.08e-6,"MEAN_MOTION_DDOT":0},{"OBJECT_NAME":"STARLINK-5233","OBJECT_ID":"2022-141D","EPOCH":"2025-08-15T13:58:06.372480","MEAN_MOTION":15.08840693,"ECCENTRICITY":0.0001402,"INCLINATION":53.2166,"RA_OF_ASC_NODE":174.3429,"ARG_OF_PERICENTER":88.2246,"MEAN_ANOMALY":271.8907,"EPHEMERIS_TYPE":0,"CLASSIFICATION_TYPE":"U","NORAD_CAT_ID":54160,"ELEMENT_SET_NO":999,"REV_AT_EPOCH":15523,"BSTAR":3.5432e-5,"MEAN_MOTION_DOT":2.76e-6,"MEAN_MOTION_DDOT":0},{"OBJECT_NAME":"STARLINK-5269","OBJECT_ID":"2022-141E","EPOCH":"2025-08-15T06:31:03.874368","MEAN_MOTION":15.08837492,"ECCENTRICITY":0.0001342,"INCLINATION":53.2161,"RA_OF_ASC_NODE":220.8739,"ARG_OF_PERICENTER":87.5457,"MEAN_ANOMALY":272.5688,"EPHEMERIS_TYPE":0,"CLASSIFICATION_TYPE":"U","NORAD_CAT_ID":54161,"ELEMENT_SET_NO":999,"REV_AT_EPOCH":15455,"BSTAR":8.5386e-6,"MEAN_MOTION_DOT":-1.52e-6,"MEAN_MOTION_DDOT":0},{"OBJECT_NAME":"STARLINK-5273","OBJECT_ID":"2022-141F","EPOCH":"2025-08-15T06:19:05.628576","MEAN_MOTION":15.08835887,"ECCENTRICITY":0.0001299,"INCLINATION":53.2158,"RA_OF_ASC_NODE":220.8203,"ARG_OF_PERICENTER":88.2878,"MEAN_ANOMALY":271.8263,"EPHEMERIS_TYPE":0,"CLASSIFICATION_TYPE":"U","NORAD_CAT_ID":54162,"ELEMENT_SET_NO":999,"REV_AT_EPOCH":15455,"BSTAR":6.0185e-5,"MEAN_MOTION_DOT":6.7e-6,"MEAN_MOTION_DDOT":0},{"OBJECT_NAME":"STARLINK-5161","OBJECT_ID":"2022-141G","EPOCH":"2025-08-15T08:11:42.895680","MEAN_MOTION":15.08834709,"ECCENTRICITY":0.0001351,"INCLINATION":53.2164,"RA_OF_ASC_NODE":210.6262,"ARG_OF_PERICENTER":86.825,"MEAN_ANOMALY":273.2897,"EPHEMERIS_TYPE":0,"CLASSIFICATION_TYPE":"U","NORAD_CAT_ID":54163,"ELEMENT_SET_NO":999,"REV_AT_EPOCH":15470,"BSTAR":1.8458e-5,"MEAN_MOTION_DOT":6.0e-8,"MEAN_MOTION_DDOT":0},{"OBJECT_NAME":"STARLINK-5278","OBJECT_ID":"2022-141H","EPOCH":"2025-08-15T08:17:01.029120","MEAN_MOTION":15.0883811,"ECCENTRICITY":0.0001378,"INCLINATION":53.2162,"RA_OF_ASC_NODE":210.6486,"ARG_OF_PERICENTER":84.7871,"MEAN_ANOMALY":275.3278,"EPHEMERIS_TYPE":0,"CLASSIFICATION_TYPE":"U","NORAD_CAT_ID":54164,"ELEMENT_SET_NO":999,"REV_AT_EPOCH":15470,"BSTAR":-5.0844e-6,"MEAN_MOTION_DOT":-3.69e-6,"MEAN_MOTION_DDOT":0},{"OBJECT_NAME":"STARLINK-5279","OBJECT_ID":"2022-141J","EPOCH":"2025-08-15T06:13:46.215552","MEAN_MOTION":15.08837205,"ECCENTRICITY":0.000126,"INCLINATION":53.216,"RA_OF_ASC_NODE":220.7986,"ARG_OF_PERICENTER":79.2844,"MEAN_ANOMALY":280.829,"EPHEMERIS_TYPE":0,"CLASSIFICATION_TYPE":"U","NORAD_CAT_ID":54165,"ELEMENT_SET_NO":999,"REV_AT_EPOCH":15455,"BSTAR":-8.0311e-6,"MEAN_MOTION_DOT":-4.16e-6,"MEAN_MOTION_DDOT":0},{"OBJECT_NAME":"STARLINK-5280","OBJECT_ID":"2022-141K","EPOCH":"2025-08-15T08:06:24.287040","MEAN_MOTION":15.08838234,"ECCENTRICITY":0.0001548,"INCLINATION":53.2163,"RA_OF_ASC_NODE":210.6026,"ARG_OF_PERICENTER":61.8277,"MEAN_ANOMALY":298.2872,"EPHEMERIS_TYPE":0,"CLASSIFICATION_TYPE":"U","NORAD_CAT_ID":54166,"ELEMENT_SET_NO":999,"REV_AT_EPOCH":15470,"BSTAR":4.6102e-5,"MEAN_MOTION_DOT":4.46e-6,"MEAN_MOTION_DDOT":0},{"OBJECT_NAME":"STARLINK-5243","OBJECT_ID":"2022-141L","EPOCH":"2025-08-15T08:58:01.640640","MEAN_MOTION":15.08825767,"ECCENTRICITY":0.0001345,"INCLINATION":53.216,"RA_OF_ASC_NODE":220.0898,"ARG_OF_PERICENTER":73.9854,"MEAN_ANOMALY":286.1286,"EPHEMERIS_TYPE":0,"CLASSIFICATION_TYPE":"U","NORAD_CAT_ID":54167,"ELEMENT_SET_NO":999,"REV_AT_EPOCH":15457,"BSTAR":6.5223e-5,"MEAN_MOTION_DOT":7.5e-6,"MEAN_MOTION_DDOT":0},{"OBJECT_NAME":"STARLINK-5245","OBJECT_ID":"2022-141M","EPOCH":"2025-08-15T06:25:42.768768","MEAN_MOTION":15.08837235,"ECCENTRICITY":0.0001338,"INCLINATION":53.2162,"RA_OF_ASC_NODE":210.8777,"ARG_OF_PERICENTER":89.0422,"MEAN_ANOMALY":271.0724,"EPHEMERIS_TYPE":0,"CLASSIFICATION_TYPE":"U","NORAD_CAT_ID":54168,"ELEMENT_SET_NO":999,"REV_AT_EPOCH":15469,"BSTAR":1.343e-5,"MEAN_MOTION_DOT":-7.4e-7,"MEAN_MOTION_DDOT":0},{"OBJECT_NAME":"STARLINK-5282","OBJECT_ID":"2022-141N","EPOCH":"2025-08-15T08:22:11.894592","MEAN_MOTION":15.08837866,"ECCENTRICITY":0.0001498,"INCLINATION":53.2157,"RA_OF_ASC_NODE":209.9694,"ARG_OF_PERICENTER":76.3077,"MEAN_ANOMALY":283.8081,"EPHEMERIS_TYPE":0,"CLASSIFICATION_TYPE":"U","NORAD_CAT_ID":54169,"ELEMENT_SET_NO":999,"REV_AT_EPOCH":15471,"BSTAR":1.9117e-5,"MEAN_MOTION_DOT":1.6e-7,"MEAN_MOTION_DDOT":0},{"OBJECT_NAME":"STARLINK-5155","OBJECT_ID":"2022-141P","EPOCH":"2025-08-15T07:55:47.925984","MEAN_MOTION":15.08847487,"ECCENTRICITY":0.0001434,"INCLINATION":53.2163,"RA_OF_ASC_NODE":210.5567,"ARG_OF_PERICENTER":81.321,"MEAN_ANOMALY":278.7944,"EPHEMERIS_TYPE":0,"CLASSIFICATION_TYPE":"U","NORAD_CAT_ID":54170,"ELEMENT_SET_NO":999,"REV_AT_EPOCH":15470,"BSTAR":4.6381e-6,"MEAN_MOTION_DOT":-2.14e-6,"MEAN_MOTION_DDOT":0},{"OBJECT_NAME":"STARLINK-5117","OBJECT_ID":"2022-141R","EPOCH":"2025-08-15T06:09:48.071232","MEAN_MOTION":15.08831782,"ECCENTRICITY":0.000135,"INCLINATION":53.2163,"RA_OF_ASC_NODE":210.8084,"ARG_OF_PERICENTER":82.741,"MEAN_ANOMALY":277.3736,"EPHEMERIS_TYPE":0,"CLASSIFICATION_TYPE":"U","NORAD_CAT_ID":54172,"ELEMENT_SET_NO":999,"REV_AT_EPOCH":15469,"BSTAR":-2.4791e-6,"MEAN_MOTION_DOT":-3.27e-6,"MEAN_MOTION_DDOT":0}]
